start=new Date('2022-01-19T00:00:00.000Z').valueOf();
sats=[{"RCS_SIZE":"LARGE","CENTER_NAME":"EARTH","MEAN_MOTION_DDOT":"0.0000000000000","TIME_SYSTEM":"UTC","REF_FRAME":"TEME","TLE_LINE1":"1 47150U 20088AE  22018.83798962  .00001369  00000-0  11091-3 0  9994","REV_AT_EPOCH":"6426","EPOCH":"2022-01-18T20:06:42.303168","ARG_OF_PERICENTER":"76.9469","PERIOD":"95.594","APOAPSIS":"549.020","INCLINATION":"53.0533","MEAN_MOTION_DOT":"0.00001369","EPHEMERIS_TYPE":"0","MEAN_MOTION":"15.06369510","OBJECT_NAME":"STARLINK-1863","OBJECT_TYPE":"PAYLOAD","MEAN_ANOMALY":"283.1796","DECAY_DATE":null,"RA_OF_ASC_NODE":"234.0966","LAUNCH_DATE":"2020-11-25","ECCENTRICITY":"0.00024730","NORAD_CAT_ID":"47150","CLASSIFICATION_TYPE":"U","FILE":"3276875","SEMIMAJOR_AXIS":"6925.442","GP_ID":"194154979","SITE":"AFETR","MEAN_ELEMENT_THEORY":"SGP4","COUNTRY_CODE":"US","BSTAR":"0.00011091000000","PERIAPSIS":"545.594","TLE_LINE2":"2 47150  53.0533 234.0966 0002473  76.9469 283.1796 15.06369510 64265","OBJECT_ID":"2020-088AE","ELEMENT_SET_NO":"999"},{"OBJECT_TYPE":"PAYLOAD","OBJECT_NAME":"STARLINK-1864","MEAN_MOTION":"15.06384273","EPHEMERIS_TYPE":"0","DECAY_DATE":null,"MEAN_ANOMALY":"291.7297","EPOCH":"2022-01-18T21:40:54.501312","REV_AT_EPOCH":"6412","MEAN_MOTION_DOT":"-0.00002162","INCLINATION":"53.0549","APOAPSIS":"548.601","ARG_OF_PERICENTER":"68.3898","PERIOD":"95.593","TLE_LINE1":"1 47151U 20088AF  22018.90340858 -.00002162  00000-0 -12632-3 0  9996","REF_FRAME":"TEME","MEAN_MOTION_DDOT":"0.0000000000000","TIME_SYSTEM":"UTC","CENTER_NAME":"EARTH","RCS_SIZE":"LARGE","TLE_LINE2":"2 47151  53.0549 243.8054 0001934  68.3898 291.7297 15.06384273 64120","PERIAPSIS":"545.922","BSTAR":"-0.00012632000000","ELEMENT_SET_NO":"999","OBJECT_ID":"2020-088AF","SEMIMAJOR_AXIS":"6925.397","COUNTRY_CODE":"US","MEAN_ELEMENT_THEORY":"SGP4","SITE":"AFETR","GP_ID":"194155714","CLASSIFICATION_TYPE":"U","NORAD_CAT_ID":"47151","FILE":"3276875","ECCENTRICITY":"0.00019340","LAUNCH_DATE":"2020-11-25","RA_OF_ASC_NODE":"243.8054"},{"OBJECT_TYPE":"PAYLOAD","OBJECT_NAME":"STARLINK-1866","MEAN_MOTION":"15.06383294","EPHEMERIS_TYPE":"0","MEAN_ANOMALY":"290.0764","DECAY_DATE":null,"EPOCH":"2022-01-18T21:19:40.532448","REV_AT_EPOCH":"6412","MEAN_MOTION_DOT":"-0.00001106","INCLINATION":"53.0545","APOAPSIS":"548.804","PERIOD":"95.593","ARG_OF_PERICENTER":"70.0464","TLE_LINE1":"1 47152U 20088AG  22018.88866357 -.00001106  00000-0 -55333-4 0  9994","REF_FRAME":"TEME","TIME_SYSTEM":"UTC","MEAN_MOTION_DDOT":"0.0000000000000","CENTER_NAME":"EARTH","RCS_SIZE":"LARGE","TLE_LINE2":"2 47152  53.0545 243.8807 0002223  70.0464 290.0764 15.06383294 64127","PERIAPSIS":"545.725","BSTAR":"-0.00005533300000","ELEMENT_SET_NO":"999","OBJECT_ID":"2020-088AG","SEMIMAJOR_AXIS":"6925.400","COUNTRY_CODE":"US","MEAN_ELEMENT_THEORY":"SGP4","SITE":"AFETR","GP_ID":"194154484","CLASSIFICATION_TYPE":"U","NORAD_CAT_ID":"47152","FILE":"3276875","LAUNCH_DATE":"2020-11-25","ECCENTRICITY":"0.00022230","RA_OF_ASC_NODE":"243.8807"},{"REF_FRAME":"TEME","MEAN_MOTION_DDOT":"0.0000000000000","CENTER_NAME":"EARTH","TIME_SYSTEM":"UTC","RCS_SIZE":"LARGE","TLE_LINE1":"1 47153U 20088AH  22018.86328859  .00001188  00000-0  98672-4 0  9994","EPOCH":"2022-01-18T20:43:08.134176","REV_AT_EPOCH":"6405","MEAN_MOTION_DOT":"0.00001188","INCLINATION":"53.0538","APOAPSIS":"548.533","ARG_OF_PERICENTER":"73.1944","PERIOD":"95.593","OBJECT_TYPE":"PAYLOAD","OBJECT_NAME":"STARLINK-1867","EPHEMERIS_TYPE":"0","MEAN_MOTION":"15.06389021","DECAY_DATE":null,"MEAN_ANOMALY":"286.9249","LAUNCH_DATE":"2020-11-25","ECCENTRICITY":"0.00018560","RA_OF_ASC_NODE":"248.9855","CLASSIFICATION_TYPE":"U","NORAD_CAT_ID":"47153","FILE":"3276875","SEMIMAJOR_AXIS":"6925.382","COUNTRY_CODE":"US","MEAN_ELEMENT_THEORY":"SGP4","GP_ID":"194154735","SITE":"AFETR","TLE_LINE2":"2 47153  53.0538 248.9855 0001856  73.1944 286.9249 15.06389021 64055","PERIAPSIS":"545.962","BSTAR":"0.00009867200000","ELEMENT_SET_NO":"999","OBJECT_ID":"2020-088AH"},{"FILE":"3276875","NORAD_CAT_ID":"47154","CLASSIFICATION_TYPE":"U","RA_OF_ASC_NODE":"233.9996","LAUNCH_DATE":"2020-11-25","ECCENTRICITY":"0.00018770","OBJECT_ID":"2020-088AJ","ELEMENT_SET_NO":"999","BSTAR":"-0.00003380400000","PERIAPSIS":"545.976","TLE_LINE2":"2 47154  53.0526 233.9996 0001877  57.4463 302.6707 15.06379553 64264","SITE":"AFETR","GP_ID":"194155480","MEAN_ELEMENT_THEORY":"SGP4","COUNTRY_CODE":"US","SEMIMAJOR_AXIS":"6925.411","TLE_LINE1":"1 47154U 20088AJ  22018.86010240 -.00000785  00000-0 -33804-4 0  9997","RCS_SIZE":"LARGE","MEAN_MOTION_DDOT":"0.0000000000000","TIME_SYSTEM":"UTC","CENTER_NAME":"EARTH","REF_FRAME":"TEME","MEAN_ANOMALY":"302.6707","DECAY_DATE":null,"MEAN_MOTION":"15.06379553","EPHEMERIS_TYPE":"0","OBJECT_NAME":"STARLINK-1868","OBJECT_TYPE":"PAYLOAD","PERIOD":"95.593","ARG_OF_PERICENTER":"57.4463","APOAPSIS":"548.576","INCLINATION":"53.0526","MEAN_MOTION_DOT":"-0.00000785","REV_AT_EPOCH":"6426","EPOCH":"2022-01-18T20:38:32.847360"},{"BSTAR":"-0.00008963500000","PERIAPSIS":"546.114","TLE_LINE2":"2 47155  53.0523 253.8274 0001714  72.5612 287.5564 15.06371408 63987","OBJECT_ID":"2020-088AK","ELEMENT_SET_NO":"999","SEMIMAJOR_AXIS":"6925.436","GP_ID":"194155214","SITE":"AFETR","MEAN_ELEMENT_THEORY":"SGP4","COUNTRY_CODE":"US","NORAD_CAT_ID":"47155","CLASSIFICATION_TYPE":"U","FILE":"3276875","RA_OF_ASC_NODE":"253.8274","ECCENTRICITY":"0.00017140","LAUNCH_DATE":"2020-11-25","EPHEMERIS_TYPE":"0","MEAN_MOTION":"15.06371408","OBJECT_NAME":"STARLINK-1869","OBJECT_TYPE":"PAYLOAD","MEAN_ANOMALY":"287.5564","DECAY_DATE":null,"REV_AT_EPOCH":"6398","EPOCH":"2022-01-18T21:28:58.327392","PERIOD":"95.594","ARG_OF_PERICENTER":"72.5612","APOAPSIS":"548.488","INCLINATION":"53.0523","MEAN_MOTION_DOT":"-0.00001615","TLE_LINE1":"1 47155U 20088AK  22018.89511953 -.00001615  00000-0 -89635-4 0  9994","RCS_SIZE":"LARGE","CENTER_NAME":"EARTH","MEAN_MOTION_DDOT":"0.0000000000000","TIME_SYSTEM":"UTC","REF_FRAME":"TEME"},{"RA_OF_ASC_NODE":"146.6107","ECCENTRICITY":"0.00015250","LAUNCH_DATE":"2020-11-25","FILE":"3276875","NORAD_CAT_ID":"47156","CLASSIFICATION_TYPE":"U","MEAN_ELEMENT_THEORY":"SGP4","SITE":"AFETR","GP_ID":"194153984","COUNTRY_CODE":"US","SEMIMAJOR_AXIS":"6722.350","OBJECT_ID":"2020-088AL","ELEMENT_SET_NO":"999","BSTAR":"0.00227950000000","TLE_LINE2":"2 47156  53.0537 146.6107 0001525  57.8598 302.2569 15.75146927 65485","PERIAPSIS":"343.190","RCS_SIZE":"LARGE","REF_FRAME":"TEME","MEAN_MOTION_DDOT":"0.0000000000000","CENTER_NAME":"EARTH","TIME_SYSTEM":"UTC","TLE_LINE1":"1 47156U 20088AL  22018.68369282  .00362775  00000-0  22795-2 0  9995","APOAPSIS":"345.240","ARG_OF_PERICENTER":"57.8598","PERIOD":"91.420","MEAN_MOTION_DOT":"0.00362775","INCLINATION":"53.0537","REV_AT_EPOCH":"6548","EPOCH":"2022-01-18T16:24:31.059648","MEAN_ANOMALY":"302.2569","DECAY_DATE":null,"OBJECT_NAME":"STARLINK-1870","EPHEMERIS_TYPE":"0","MEAN_MOTION":"15.75146927","OBJECT_TYPE":"PAYLOAD"},{"PERIOD":"95.593","ARG_OF_PERICENTER":"63.3323","APOAPSIS":"548.541","INCLINATION":"53.0518","MEAN_MOTION_DOT":"0.00001733","REV_AT_EPOCH":"6412","EPOCH":"2022-01-18T20:47:49.495776","MEAN_ANOMALY":"296.7854","DECAY_DATE":null,"MEAN_MOTION":"15.06384050","EPHEMERIS_TYPE":"0","OBJECT_NAME":"STARLINK-1871","OBJECT_TYPE":"PAYLOAD","RCS_SIZE":"LARGE","MEAN_MOTION_DDOT":"0.0000000000000","TIME_SYSTEM":"UTC","CENTER_NAME":"EARTH","REF_FRAME":"TEME","TLE_LINE1":"1 47157U 20088AM  22018.86654509  .00001733  00000-0  13530-3 0  9997","GP_ID":"194154235","SITE":"AFETR","MEAN_ELEMENT_THEORY":"SGP4","COUNTRY_CODE":"US","SEMIMAJOR_AXIS":"6925.397","OBJECT_ID":"2020-088AM","ELEMENT_SET_NO":"999","BSTAR":"0.00013530000000","PERIAPSIS":"545.984","TLE_LINE2":"2 47157  53.0518 243.9631 0001846  63.3323 296.7854 15.06384050 64121","RA_OF_ASC_NODE":"243.9631","ECCENTRICITY":"0.00018460","LAUNCH_DATE":"2020-11-25","FILE":"3276875","NORAD_CAT_ID":"47157","CLASSIFICATION_TYPE":"U"},{"RA_OF_ASC_NODE":"233.8522","LAUNCH_DATE":"2020-11-25","ECCENTRICITY":"0.00021530","FILE":"3276875","NORAD_CAT_ID":"47158","CLASSIFICATION_TYPE":"U","MEAN_ELEMENT_THEORY":"SGP4","GP_ID":"194154980","SITE":"AFETR","COUNTRY_CODE":"US","SEMIMAJOR_AXIS":"6925.380","OBJECT_ID":"2020-088AN","ELEMENT_SET_NO":"999","BSTAR":"-0.00006066500000","TLE_LINE2":"2 47158  53.0544 233.8522 0002153  64.5796 295.5415 15.06389667 64261","PERIAPSIS":"545.754","RCS_SIZE":"LARGE","REF_FRAME":"TEME","MEAN_MOTION_DDOT":"0.0000000000000","CENTER_NAME":"EARTH","TIME_SYSTEM":"UTC","TLE_LINE1":"1 47158U 20088AN  22018.88958107 -.00001185  00000-0 -60665-4 0  9996","APOAPSIS":"548.736","PERIOD":"95.593","ARG_OF_PERICENTER":"64.5796","MEAN_MOTION_DOT":"-0.00001185","INCLINATION":"53.0544","REV_AT_EPOCH":"6426","EPOCH":"2022-01-18T21:20:59.804448","DECAY_DATE":null,"MEAN_ANOMALY":"295.5415","OBJECT_NAME":"STARLINK-1873","MEAN_MOTION":"15.06389667","EPHEMERIS_TYPE":"0","OBJECT_TYPE":"PAYLOAD"},{"TLE_LINE1":"1 47159U 20088AP  22018.85582075  .00506433  00000-0  63818-2 0  9996","RCS_SIZE":"LARGE","CENTER_NAME":"EARTH","MEAN_MOTION_DDOT":"0.0000000000000","TIME_SYSTEM":"UTC","REF_FRAME":"TEME","MEAN_ANOMALY":"321.6643","DECAY_DATE":null,"EPHEMERIS_TYPE":"0","MEAN_MOTION":"15.57366355","OBJECT_NAME":"STARLINK-1874","OBJECT_TYPE":"PAYLOAD","PERIOD":"92.464","ARG_OF_PERICENTER":"38.4509","APOAPSIS":"396.618","INCLINATION":"53.0519","MEAN_MOTION_DOT":"0.00506433","REV_AT_EPOCH":"6436","EPOCH":"2022-01-18T20:32:22.912800","FILE":"3276875","NORAD_CAT_ID":"47159","CLASSIFICATION_TYPE":"U","RA_OF_ASC_NODE":"226.7872","LAUNCH_DATE":"2020-11-25","ECCENTRICITY":"0.00019690","OBJECT_ID":"2020-088AP","ELEMENT_SET_NO":"999","BSTAR":"0.00638180000000","PERIAPSIS":"393.951","TLE_LINE2":"2 47159  53.0519 226.7872 0001969  38.4509 321.6643 15.57366355 64369","GP_ID":"194155715","SITE":"AFETR","MEAN_ELEMENT_THEORY":"SGP4","COUNTRY_CODE":"US","SEMIMAJOR_AXIS":"6773.420"}];
